{
  "norad_id": 61923,
  "name": "STARLINK-32537",
  "history": [
    {
      "epoch": "2026-03-28T15:08:42.178272Z",
      "apogee_km": 484.38538368303944,
      "perigee_km": 481.8110482300126,
      "latitude_deg": -1.8450501287036418e-05,
      "longitude_deg": 125.46071662293353,
      "height_km": 482.7186879125488,
      "semi_major_axis_km": 6861.235215956525,
      "eccentricity": 0.0001876,
      "inclination_deg": 43.0047,
      "raan_deg": 178.6852,
      "arg_perigee_deg": 277.0126,
      "mean_anomaly_deg": 83.0512,
      "mean_motion_rev_day": 15.27563596
    }
  ]
}