{"fetched_at":"2026-03-29T16:36:15Z","count":15609,"tles":[{"name":"STARLINK-32537","line1":"1 61923U 24207M   26087.63104373  .00027931  00000+0  10212-2 0  9995","line2":"2 61923  43.0047 178.6852 0001876 277.0126  83.0512 15.27563596 77579","category":"Starlink"}]}